{
  "links" : {
    "next" : "https://api.nasa.gov/neo/rest/v1/feed?start_date=1998-03-16&end_date=1998-03-16&detailed=true&api_key=t0TVs3DtDT2H8Oy2Zy8m2eVrNsAVKAexjcZXUckd",
    "prev" : "https://api.nasa.gov/neo/rest/v1/feed?start_date=1998-03-14&end_date=1998-03-14&detailed=true&api_key=t0TVs3DtDT2H8Oy2Zy8m2eVrNsAVKAexjcZXUckd",
    "self" : "https://api.nasa.gov/neo/rest/v1/feed?start_date=1998-03-15&end_date=1998-03-15&detailed=true&api_key=t0TVs3DtDT2H8Oy2Zy8m2eVrNsAVKAexjcZXUckd"
  },
  "element_count" : 9,
  "near_earth_objects" : {
    "1998-03-15" : [ {
      "links" : {
        "self" : "https://api.nasa.gov/neo/rest/v1/neo/2100756?api_key=t0TVs3DtDT2H8Oy2Zy8m2eVrNsAVKAexjcZXUckd"
      },
      "neo_reference_id" : "2100756",
      "name" : "100756 (1998 FM5)",
      "nasa_jpl_url" : "http://ssd.jpl.nasa.gov/sbdb.cgi?sstr=2100756",
      "absolute_magnitude_h" : 16.3,
      "estimated_diameter" : {
        "kilometers" : {
          "estimated_diameter_min" : 1.4606796427,
          "estimated_diameter_max" : 3.2661789745
        },
        "meters" : {
          "estimated_diameter_min" : 1460.6796427136,
          "estimated_diameter_max" : 3266.1789744576
        },
        "miles" : {
          "estimated_diameter_min" : 0.9076239703,
          "estimated_diameter_max" : 2.0295088955
        },
        "feet" : {
          "estimated_diameter_min" : 4792.2561990004,
          "estimated_diameter_max" : 10715.8106265596
        }
      },
      "is_potentially_hazardous_asteroid" : false,
      "close_approach_data" : [ {
        "close_approach_date" : "1998-03-15",
        "epoch_date_close_approach" : 889948800000,
        "relative_velocity" : {
          "kilometers_per_second" : "15.7028111022",
          "kilometers_per_hour" : "56530.1199680964",
          "miles_per_hour" : "35125.6181546208"
        },
        "miss_distance" : {
          "astronomical" : "0.2408289455",
          "lunar" : "93.6824569702",
          "kilometers" : "36027496",
          "miles" : "22386450"
        },
        "orbiting_body" : "Earth"
      } ],
      "orbital_data" : {
        "orbit_id" : "154",
        "orbit_determination_date" : "2017-09-13 06:19:14",
        "orbit_uncertainty" : "0",
        "minimum_orbit_intersection" : ".102054",
        "jupiter_tisserand_invariant" : "3.372",
        "epoch_osculation" : "2458000.5",
        "eccentricity" : ".5516418204524882",
        "semi_major_axis" : "2.269188677667739",
        "inclination" : "11.52593524813328",
        "ascending_node_longitude" : "176.859201400188",
        "orbital_period" : "1248.545399597102",
        "perihelion_distance" : "1.017409304568933",
        "perihelion_argument" : "311.6479835232465",
        "aphelion_distance" : "3.520968050766546",
        "perihelion_time" : "2458338.445104466833",
        "mean_anomaly" : "262.5584190632405",
        "mean_motion" : ".2883355303829319",
        "equinox" : "J2000"
      }
    }, {
      "links" : {
        "self" : "https://api.nasa.gov/neo/rest/v1/neo/2138258?api_key=t0TVs3DtDT2H8Oy2Zy8m2eVrNsAVKAexjcZXUckd"
      },
      "neo_reference_id" : "2138258",
      "name" : "138258 (2000 GD2)",
      "nasa_jpl_url" : "http://ssd.jpl.nasa.gov/sbdb.cgi?sstr=2138258",
      "absolute_magnitude_h" : 19.1,
      "estimated_diameter" : {
        "kilometers" : {
          "estimated_diameter_min" : 0.4023045798,
          "estimated_diameter_max" : 0.8995803882
        },
        "meters" : {
          "estimated_diameter_min" : 402.3045798343,
          "estimated_diameter_max" : 899.5803881691
        },
        "miles" : {
          "estimated_diameter_min" : 0.2499803991,
          "estimated_diameter_max" : 0.5589731654
        },
        "feet" : {
          "estimated_diameter_min" : 1319.8969577037,
          "estimated_diameter_max" : 2951.3793207207
        }
      },
      "is_potentially_hazardous_asteroid" : false,
      "close_approach_data" : [ {
        "close_approach_date" : "1998-03-15",
        "epoch_date_close_approach" : 889948800000,
        "relative_velocity" : {
          "kilometers_per_second" : "20.9539081324",
          "kilometers_per_hour" : "75434.0692764892",
          "miles_per_hour" : "46871.7971012718"
        },
        "miss_distance" : {
          "astronomical" : "0.1957889179",
          "lunar" : "76.1618881226",
          "kilometers" : "29289606",
          "miles" : "18199718"
        },
        "orbiting_body" : "Earth"
      } ],
      "orbital_data" : {
        "orbit_id" : "39",
        "orbit_determination_date" : "2017-04-06 09:27:47",
        "orbit_uncertainty" : "0",
        "minimum_orbit_intersection" : ".0729109",
        "jupiter_tisserand_invariant" : "7.435",
        "epoch_osculation" : "2458000.5",
        "eccentricity" : ".476771064756976",
        "semi_major_axis" : ".7577328865407742",
        "inclination" : "32.14000392635563",
        "ascending_node_longitude" : "358.1300129096701",
        "orbital_period" : "240.9198764221961",
        "perihelion_distance" : ".3964677714233524",
        "perihelion_argument" : "16.96992726827366",
        "aphelion_distance" : "1.118998001658196",
        "perihelion_time" : "2458043.950307866270",
        "mean_anomaly" : "295.0733901073178",
        "mean_motion" : "1.49427272397037",
        "equinox" : "J2000"
      }
    }, {
      "links" : {
        "self" : "https://api.nasa.gov/neo/rest/v1/neo/3092173?api_key=t0TVs3DtDT2H8Oy2Zy8m2eVrNsAVKAexjcZXUckd"
      },
      "neo_reference_id" : "3092173",
      "name" : "(1998 FJ74)",
      "nasa_jpl_url" : "http://ssd.jpl.nasa.gov/sbdb.cgi?sstr=3092173",
      "absolute_magnitude_h" : 18.8,
      "estimated_diameter" : {
        "kilometers" : {
          "estimated_diameter_min" : 0.4619074603,
          "estimated_diameter_max" : 1.0328564805
        },
        "meters" : {
          "estimated_diameter_min" : 461.9074602816,
          "estimated_diameter_max" : 1032.8564805039
        },
        "miles" : {
          "estimated_diameter_min" : 0.2870159005,
          "estimated_diameter_max" : 0.6417870641
        },
        "feet" : {
          "estimated_diameter_min" : 1515.4444719902,
          "estimated_diameter_max" : 3388.6368554964
        }
      },
      "is_potentially_hazardous_asteroid" : false,
      "close_approach_data" : [ {
        "close_approach_date" : "1998-03-15",
        "epoch_date_close_approach" : 889948800000,
        "relative_velocity" : {
          "kilometers_per_second" : "14.1885235352",
          "kilometers_per_hour" : "51078.6847267974",
          "miles_per_hour" : "31738.308295937"
        },
        "miss_distance" : {
          "astronomical" : "0.4406348985",
          "lunar" : "171.4069824219",
          "kilometers" : "65918044",
          "miles" : "40959572"
        },
        "orbiting_body" : "Earth"
      } ],
      "orbital_data" : {
        "orbit_id" : "17",
        "orbit_determination_date" : "2017-04-06 09:17:51",
        "orbit_uncertainty" : "0",
        "minimum_orbit_intersection" : ".360761",
        "jupiter_tisserand_invariant" : "3.186",
        "epoch_osculation" : "2458000.5",
        "eccentricity" : ".5380650750707939",
        "semi_major_axis" : "2.388341847556277",
        "inclination" : "28.11804183647584",
        "ascending_node_longitude" : "197.09813519544",
        "orbital_period" : "1348.165344847602",
        "perihelion_distance" : "1.10325851205619",
        "perihelion_argument" : "282.9202293064269",
        "aphelion_distance" : "3.673425183056364",
        "perihelion_time" : "2457560.377137030496",
        "mean_anomaly" : "117.5258148227598",
        "mean_motion" : ".2670295608590168",
        "equinox" : "J2000"
      }
    } ]
  }
}